start=new Date('2023-04-15T00:00:00.000Z').valueOf();
sats=[{"COUNTRY_CODE":"US","CLASSIFICATION_TYPE":"U","MEAN_ANOMALY":"263.2738","INCLINATION":"53.0546","SITE":"AFETR","ECCENTRICITY":"0.00006360","TLE_LINE1":"1 46794U 20074BH  23104.23119098  .00035638  00000-0  23964-2 0  9997","RA_OF_ASC_NODE":"42.1994","ARG_OF_PERICENTER":"96.8324","SEMIMAJOR_AXIS":"6925.209","OBJECT_NAME":"STARLINK-1942","APOAPSIS":"547.514","PERIOD":"95.589","TIME_SYSTEM":"UTC","OBJECT_ID":"2020-074BH","REF_FRAME":"TEME","LAUNCH_DATE":"2020-10-24","BSTAR":"0.00239640000000","MEAN_MOTION_DOT":"0.00035638","MEAN_MOTION_DDOT":"0.0000000000000","NORAD_CAT_ID":"46794","EPOCH":"2023-04-14T05:32:54.900672","EPHEMERIS_TYPE":"0","ELEMENT_SET_NO":"999","PERIAPSIS":"546.634","RCS_SIZE":"LARGE","MEAN_ELEMENT_THEORY":"SGP4","REV_AT_EPOCH":"13684","MEAN_MOTION":"15.06445550","OBJECT_TYPE":"PAYLOAD","FILE":"3887333","DECAY_DATE":null,"GP_ID":"230054808","CENTER_NAME":"EARTH","TLE_LINE2":"2 46794  53.0546  42.1994 0000636  96.8324 263.2738 15.06445550136849"},{"INCLINATION":"53.0550","SITE":"AFETR","COUNTRY_CODE":"US","CLASSIFICATION_TYPE":"U","MEAN_ANOMALY":"338.9140","ARG_OF_PERICENTER":"21.1912","OBJECT_NAME":"STARLINK-1944","SEMIMAJOR_AXIS":"6925.434","APOAPSIS":"548.366","PERIOD":"95.594","ECCENTRICITY":"0.00015400","TLE_LINE1":"1 46796U 20074BK  23104.93613565  .00005667  00000-0  39934-3 0  9998","RA_OF_ASC_NODE":"29.0343","OBJECT_ID":"2020-074BK","REF_FRAME":"TEME","TIME_SYSTEM":"UTC","BSTAR":"0.00039934000000","MEAN_MOTION_DOT":"0.00005667","LAUNCH_DATE":"2020-10-24","NORAD_CAT_ID":"46796","EPOCH":"2023-04-14T22:28:02.120160","EPHEMERIS_TYPE":"0","MEAN_MOTION_DDOT":"0.0000000000000","RCS_SIZE":"LARGE","MEAN_ELEMENT_THEORY":"SGP4","ELEMENT_SET_NO":"999","PERIAPSIS":"546.232","FILE":"3887512","DECAY_DATE":null,"REV_AT_EPOCH":"13676","OBJECT_TYPE":"PAYLOAD","MEAN_MOTION":"15.06372120","CENTER_NAME":"EARTH","TLE_LINE2":"2 46796  53.0550  29.0343 0001540  21.1912 338.9140 15.06372120136767","GP_ID":"230065879"},{"REF_FRAME":"TEME","OBJECT_ID":"2020-074BM","TIME_SYSTEM":"UTC","BSTAR":"0.00180190000000","MEAN_MOTION_DOT":"0.00026697","LAUNCH_DATE":"2020-10-24","SITE":"AFETR","INCLINATION":"53.0553","MEAN_ANOMALY":"244.1349","CLASSIFICATION_TYPE":"U","COUNTRY_CODE":"US","PERIOD":"95.589","APOAPSIS":"548.033","OBJECT_NAME":"STARLINK-1948","SEMIMAJOR_AXIS":"6925.193","ARG_OF_PERICENTER":"115.9785","RA_OF_ASC_NODE":"56.8704","TLE_LINE1":"1 46798U 20074BM  23104.30441619  .00026697  00000-0  18019-2 0  9996","ECCENTRICITY":"0.00014070","DECAY_DATE":null,"FILE":"3887333","MEAN_MOTION":"15.06450687","OBJECT_TYPE":"PAYLOAD","REV_AT_EPOCH":"13664","TLE_LINE2":"2 46798  53.0553  56.8704 0001407 115.9785 244.1349 15.06450687136644","CENTER_NAME":"EARTH","GP_ID":"230055308","EPHEMERIS_TYPE":"0","NORAD_CAT_ID":"46798","EPOCH":"2023-04-14T07:18:21.558816","MEAN_MOTION_DDOT":"0.0000000000000","MEAN_ELEMENT_THEORY":"SGP4","RCS_SIZE":"LARGE","PERIAPSIS":"546.084","ELEMENT_SET_NO":"999"},{"DECAY_DATE":null,"FILE":"3887333","OBJECT_TYPE":"PAYLOAD","MEAN_MOTION":"15.06442085","REV_AT_EPOCH":"13198","TLE_LINE2":"2 47122  53.0559  22.6751 0000937  88.5218 271.5878 15.06442085131984","CENTER_NAME":"EARTH","GP_ID":"230055089","EPHEMERIS_TYPE":"0","NORAD_CAT_ID":"47122","EPOCH":"2023-04-14T03:01:38.812224","MEAN_MOTION_DDOT":"0.0000000000000","MEAN_ELEMENT_THEORY":"SGP4","RCS_SIZE":"LARGE","PERIAPSIS":"546.436","ELEMENT_SET_NO":"999","REF_FRAME":"TEME","OBJECT_ID":"2020-088A","TIME_SYSTEM":"UTC","MEAN_MOTION_DOT":"0.00040194","BSTAR":"0.00269890000000","LAUNCH_DATE":"2020-11-25","SITE":"AFETR","INCLINATION":"53.0559","MEAN_ANOMALY":"271.5878","CLASSIFICATION_TYPE":"U","COUNTRY_CODE":"US","APOAPSIS":"547.733","PERIOD":"95.589","OBJECT_NAME":"STARLINK-1777","SEMIMAJOR_AXIS":"6925.220","ARG_OF_PERICENTER":"88.5218","RA_OF_ASC_NODE":"22.6751","TLE_LINE1":"1 47122U 20088A   23104.12614366  .00040194  00000-0  26989-2 0  9997","ECCENTRICITY":"0.00009370"},{"REV_AT_EPOCH":"13228","OBJECT_TYPE":"PAYLOAD","MEAN_MOTION":"15.06404246","DECAY_DATE":null,"FILE":"3887428","GP_ID":"230064034","CENTER_NAME":"EARTH","TLE_LINE2":"2 47124  53.0552  25.6559 0001254 128.7944 231.3157 15.06404246132289","MEAN_MOTION_DDOT":"0.0000000000000","NORAD_CAT_ID":"47124","EPOCH":"2023-04-14T13:51:10.591488","EPHEMERIS_TYPE":"0","PERIAPSIS":"546.332","ELEMENT_SET_NO":"999","MEAN_ELEMENT_THEORY":"SGP4","RCS_SIZE":"LARGE","TIME_SYSTEM":"UTC","REF_FRAME":"TEME","OBJECT_ID":"2020-088C","LAUNCH_DATE":"2020-11-25","MEAN_MOTION_DOT":"-0.00000595","BSTAR":"-0.00002104200000","COUNTRY_CODE":"US","MEAN_ANOMALY":"231.3157","CLASSIFICATION_TYPE":"U","INCLINATION":"53.0552","SITE":"AFETR","ECCENTRICITY":"0.00012540","RA_OF_ASC_NODE":"25.6559","TLE_LINE1":"1 47124U 20088C   23104.57720592 -.00000595  00000-0 -21042-4 0  9997","SEMIMAJOR_AXIS":"6925.336","OBJECT_NAME":"STARLINK-1785","ARG_OF_PERICENTER":"128.7944","APOAPSIS":"548.069","PERIOD":"95.592"},{"REF_FRAME":"TEME","OBJECT_ID":"2020-088E","TIME_SYSTEM":"UTC","MEAN_MOTION_DOT":"0.00039071","BSTAR":"0.00262320000000","LAUNCH_DATE":"2020-11-25","SITE":"AFETR","INCLINATION":"53.0550","CLASSIFICATION_TYPE":"U","MEAN_ANOMALY":"232.3001","COUNTRY_CODE":"US","APOAPSIS":"547.968","PERIOD":"95.588","OBJECT_NAME":"STARLINK-1812","SEMIMAJOR_AXIS":"6925.166","ARG_OF_PERICENTER":"127.8110","RA_OF_ASC_NODE":"22.5570","TLE_LINE1":"1 47126U 20088E   23104.15193694  .00039071  00000-0  26232-2 0  9993","ECCENTRICITY":"0.00013520","DECAY_DATE":null,"FILE":"3887333","MEAN_MOTION":"15.06459462","OBJECT_TYPE":"PAYLOAD","REV_AT_EPOCH":"13199","TLE_LINE2":"2 47126  53.0550  22.5570 0001352 127.8110 232.3001 15.06459462131998","CENTER_NAME":"EARTH","GP_ID":"230054089","EPHEMERIS_TYPE":"0","EPOCH":"2023-04-14T03:38:47.351616","NORAD_CAT_ID":"47126","MEAN_MOTION_DDOT":"0.0000000000000","MEAN_ELEMENT_THEORY":"SGP4","RCS_SIZE":"LARGE","PERIAPSIS":"546.095","ELEMENT_SET_NO":"999"},{"TIME_SYSTEM":"UTC","OBJECT_ID":"2020-088G","REF_FRAME":"TEME","LAUNCH_DATE":"2020-11-25","MEAN_MOTION_DOT":"0.00043342","BSTAR":"0.00290760000000","COUNTRY_CODE":"US","CLASSIFICATION_TYPE":"U","MEAN_ANOMALY":"252.0855","INCLINATION":"53.0541","SITE":"AFETR","ECCENTRICITY":"0.00008980","TLE_LINE1":"1 47128U 20088G   23104.10956477  .00043342  00000-0  29076-2 0  9991","RA_OF_ASC_NODE":"2.7492","ARG_OF_PERICENTER":"108.0232","OBJECT_NAME":"STARLINK-1837","SEMIMAJOR_AXIS":"6925.225","APOAPSIS":"547.712","PERIOD":"95.590","REV_AT_EPOCH":"13226","OBJECT_TYPE":"PAYLOAD","MEAN_MOTION":"15.06440402","FILE":"3887333","DECAY_DATE":null,"GP_ID":"230054339","CENTER_NAME":"EARTH","TLE_LINE2":"2 47128  53.0541   2.7492 0000898 108.0232 252.0855 15.06440402132264","MEAN_MOTION_DDOT":"0.0000000000000","EPOCH":"2023-04-14T02:37:46.396128","NORAD_CAT_ID":"47128","EPHEMERIS_TYPE":"0","ELEMENT_SET_NO":"999","PERIAPSIS":"546.468","RCS_SIZE":"LARGE","MEAN_ELEMENT_THEORY":"SGP4"},{"MEAN_ANOMALY":"260.4993","CLASSIFICATION_TYPE":"U","COUNTRY_CODE":"US","SITE":"AFETR","INCLINATION":"53.0552","TLE_LINE1":"1 47129U 20088H   23104.13811664  .00036118  00000-0  24274-2 0  9991","RA_OF_ASC_NODE":"12.6174","ECCENTRICITY":"0.00014550","PERIOD":"95.588","APOAPSIS":"548.042","ARG_OF_PERICENTER":"99.6160","SEMIMAJOR_AXIS":"6925.170","OBJECT_NAME":"STARLINK-1838","TIME_SYSTEM":"UTC","OBJECT_ID":"2020-088H","REF_FRAME":"TEME","LAUNCH_DATE":"2020-11-25","MEAN_MOTION_DOT":"0.00036118","BSTAR":"0.00242740000000","MEAN_MOTION_DDOT":"0.0000000000000","EPHEMERIS_TYPE":"0","NORAD_CAT_ID":"47129","EPOCH":"2023-04-14T03:18:53.277696","ELEMENT_SET_NO":"999","PERIAPSIS":"546.027","RCS_SIZE":"LARGE","MEAN_ELEMENT_THEORY":"SGP4","MEAN_MOTION":"15.06458344","OBJECT_TYPE":"PAYLOAD","REV_AT_EPOCH":"13213","FILE":"3887333","DECAY_DATE":null,"GP_ID":"230055589","TLE_LINE2":"2 47129  53.0552  12.6174 0001455  99.6160 260.4993 15.06458344132135","CENTER_NAME":"EARTH"},{"MEAN_MOTION_DOT":"0.00396358","BSTAR":"0.00144760000000","LAUNCH_DATE":"2020-11-25","REF_FRAME":"TEME","OBJECT_ID":"2020-088J","TIME_SYSTEM":"UTC","OBJECT_NAME":"STARLINK-1839","SEMIMAJOR_AXIS":"6689.313","ARG_OF_PERICENTER":"213.4353","APOAPSIS":"315.221","PERIOD":"90.747","ECCENTRICITY":"0.00060440","RA_OF_ASC_NODE":"321.8778","TLE_LINE1":"1 47130U 20088J   23104.58335648  .00396358  00000-0  14476-2 0  9993","INCLINATION":"53.0417","SITE":"AFETR","COUNTRY_CODE":"US","MEAN_ANOMALY":"355.8024","CLASSIFICATION_TYPE":"U","CENTER_NAME":"EARTH","TLE_LINE2":"2 47130  53.0417 321.8778 0006044 213.4353 355.8024 15.86830420  1306","GP_ID":"230055840","DECAY_DATE":null,"FILE":"3887333","REV_AT_EPOCH":"130","MEAN_MOTION":"15.86830420","OBJECT_TYPE":"PAYLOAD","MEAN_ELEMENT_THEORY":"SGP4","RCS_SIZE":"LARGE","PERIAPSIS":"307.135","ELEMENT_SET_NO":"999","NORAD_CAT_ID":"47130","EPOCH":"2023-04-14T14:00:01.999872","EPHEMERIS_TYPE":"0","MEAN_MOTION_DDOT":"0.0000000000000"},{"OBJECT_ID":"2020-088M","REF_FRAME":"TEME","TIME_SYSTEM":"UTC","MEAN_MOTION_DOT":"0.00038172","BSTAR":"0.00256400000000","LAUNCH_DATE":"2020-11-25","INCLINATION":"53.0546","SITE":"AFETR","COUNTRY_CODE":"US","MEAN_ANOMALY":"250.8146","CLASSIFICATION_TYPE":"U","ARG_OF_PERICENTER":"109.2944","SEMIMAJOR_AXIS":"6925.184","OBJECT_NAME":"STARLINK-1843","PERIOD":"95.589","APOAPSIS":"547.701","ECCENTRICITY":"0.00009410","TLE_LINE1":"1 47133U 20088M   23104.19709030  .00038172  00000-0  25640-2 0  9995","RA_OF_ASC_NODE":"12.3519","FILE":"3887333","DECAY_DATE":null,"REV_AT_EPOCH":"13213","OBJECT_TYPE":"PAYLOAD","MEAN_MOTION":"15.06453568","CENTER_NAME":"EARTH","TLE_LINE2":"2 47133  53.0546  12.3519 0000941 109.2944 250.8146 15.06453568132136","GP_ID":"230054590","NORAD_CAT_ID":"47133","EPOCH":"2023-04-14T04:43:48.601920","EPHEMERIS_TYPE":"0","MEAN_MOTION_DDOT":"0.0000000000000","RCS_SIZE":"LARGE","MEAN_ELEMENT_THEORY":"SGP4","ELEMENT_SET_NO":"999","PERIAPSIS":"546.398"}];
